[{"OBJECT_NAME":"PROBA-1","OBJECT_ID":"2001-049B","EPOCH":"2026-03-09T22:57:25.772256","MEAN_MOTION":15.07031721,"ECCENTRICITY":0.00568356,"INCLINATION":97.9638,"RA_OF_ASC_NODE":74.0417,"ARG_OF_PERICENTER":98.1776,"MEAN_ANOMALY":262.5903,"EPHEMERIS_TYPE":0,"CLASSIFICATION_TYPE":"U","NORAD_CAT_ID":26958,"ELEMENT_SET_NO":999,"REV_AT_EPOCH":32867,"BSTAR":0.00028513173,"MEAN_MOTION_DOT":4.362e-5,"MEAN_MOTION_DDOT":0},{"OBJECT_NAME":"STARLINK-3178","OBJECT_ID":"2022-010M","EPOCH":"2026-03-09T20:51:43.173216","MEAN_MOTION":15.08831514,"ECCENTRICITY":0.00012524,"INCLINATION":53.2164,"RA_OF_ASC_NODE":278.3148,"ARG_OF_PERICENTER":85.3546,"MEAN_ANOMALY":274.7589,"EPHEMERIS_TYPE":0,"CLASSIFICATION_TYPE":"U","NORAD_CAT_ID":51467,"ELEMENT_SET_NO":999,"REV_AT_EPOCH":22654,"BSTAR":-0.00012084635,"MEAN_MOTION_DOT":-2.21e-5,"MEAN_MOTION_DDOT":0}]
